[{"OBJECT_NAME":"ICEYE-X44","OBJECT_ID":"2025-009DC","EPOCH":"2026-03-09T19:21:58.725216","MEAN_MOTION":14.95383166,"ECCENTRICITY":0.00024229,"INCLINATION":97.7094,"RA_OF_ASC_NODE":149.536,"ARG_OF_PERICENTER":102.1776,"MEAN_ANOMALY":257.9717,"EPHEMERIS_TYPE":0,"CLASSIFICATION_TYPE":"U","NORAD_CAT_ID":62707,"ELEMENT_SET_NO":999,"REV_AT_EPOCH":8508,"BSTAR":0.00035707542,"MEAN_MOTION_DOT":3.886e-5,"MEAN_MOTION_DDOT":0},{"OBJECT_NAME":"COSMOS 1275 DEB","OBJECT_ID":"1981-053PM","EPOCH":"2026-02-19T02:57:31.850784","MEAN_MOTION":14.92096879,"ECCENTRICITY":0.00088143,"INCLINATION":82.7617,"RA_OF_ASC_NODE":355.4493,"ARG_OF_PERICENTER":71.846,"MEAN_ANOMALY":288.372,"EPHEMERIS_TYPE":0,"CLASSIFICATION_TYPE":"U","NORAD_CAT_ID":42101,"ELEMENT_SET_NO":999,"REV_AT_EPOCH":59624,"BSTAR":0.0036692581,"MEAN_MOTION_DOT":0.00037484,"MEAN_MOTION_DDOT":0}]
